start=new Date('2023-07-03T00:00:00.000Z').valueOf();
sats=[{"TLE_LINE1":"1 52541U 22051J   23183.10720928 -.00000325  00000-0 -23081-5 0  9994","APOAPSIS":"540.620","COUNTRY_CODE":"US","INCLINATION":"53.2169","PERIAPSIS":"538.857","DECAY_DATE":null,"TIME_SYSTEM":"UTC","GP_ID":"234666944","ELEMENT_SET_NO":"999","OBJECT_ID":"2022-051J","RA_OF_ASC_NODE":"220.6166","OBJECT_NAME":"STARLINK-3845","SITE":"AFWTR","LAUNCH_DATE":"2022-05-13","REV_AT_EPOCH":"6325","MEAN_MOTION_DDOT":"0.0000000000000","RCS_SIZE":"LARGE","MEAN_ANOMALY":"279.3337","TLE_LINE2":"2 52541  53.2169 220.6166 0001274  80.7799 279.3337 15.08842267 63255","MEAN_ELEMENT_THEORY":"SGP4","EPHEMERIS_TYPE":"0","SEMIMAJOR_AXIS":"6917.873","MEAN_MOTION":"15.08842267","REF_FRAME":"TEME","OBJECT_TYPE":"PAYLOAD","NORAD_CAT_ID":"52541","EPOCH":"2023-07-02T02:34:22.881792","CLASSIFICATION_TYPE":"U","PERIOD":"95.437","ECCENTRICITY":"0.00012740","FILE":"3947458","CENTER_NAME":"EARTH","ARG_OF_PERICENTER":"80.7799","MEAN_MOTION_DOT":"-0.00000325","BSTAR":"-0.00000230810000"},{"PERIAPSIS":"539.111","DECAY_DATE":null,"TLE_LINE1":"1 52542U 22051K   23183.40022682  .00000261  00000-0  34487-4 0  9998","COUNTRY_CODE":"US","APOAPSIS":"540.379","INCLINATION":"53.2156","GP_ID":"234674485","ELEMENT_SET_NO":"999","TIME_SYSTEM":"UTC","RA_OF_ASC_NODE":"214.2991","OBJECT_ID":"2022-051K","LAUNCH_DATE":"2022-05-13","SITE":"AFWTR","OBJECT_NAME":"STARLINK-3937","RCS_SIZE":"LARGE","MEAN_ANOMALY":"287.6570","REV_AT_EPOCH":"6337","MEAN_MOTION_DDOT":"0.0000000000000","MEAN_ELEMENT_THEORY":"SGP4","EPHEMERIS_TYPE":"0","TLE_LINE2":"2 52542  53.2156 214.2991 0000916  72.4522 287.6570 15.08840074 63379","REF_FRAME":"TEME","SEMIMAJOR_AXIS":"6917.880","MEAN_MOTION":"15.08840074","OBJECT_TYPE":"PAYLOAD","NORAD_CAT_ID":"52542","EPOCH":"2023-07-02T09:36:19.597248","CLASSIFICATION_TYPE":"U","PERIOD":"95.438","FILE":"3947760","ECCENTRICITY":"0.00009160","CENTER_NAME":"EARTH","MEAN_MOTION_DOT":"0.00000261","ARG_OF_PERICENTER":"72.4522","BSTAR":"0.00003448700000"},{"TIME_SYSTEM":"UTC","ELEMENT_SET_NO":"999","GP_ID":"234673991","TLE_LINE1":"1 52543U 22051L   23183.41126875 -.00000113  00000-0  10955-4 0  9990","APOAPSIS":"540.474","COUNTRY_CODE":"US","INCLINATION":"53.2152","PERIAPSIS":"539.020","DECAY_DATE":null,"TLE_LINE2":"2 52543  53.2152 214.2514 0001051  87.2727 272.8385 15.08839522 63375","EPHEMERIS_TYPE":"0","MEAN_ELEMENT_THEORY":"SGP4","REV_AT_EPOCH":"6337","MEAN_MOTION_DDOT":"0.0000000000000","MEAN_ANOMALY":"272.8385","RCS_SIZE":"LARGE","OBJECT_NAME":"STARLINK-3926","SITE":"AFWTR","LAUNCH_DATE":"2022-05-13","OBJECT_ID":"2022-051L","RA_OF_ASC_NODE":"214.2514","PERIOD":"95.438","EPOCH":"2023-07-02T09:52:13.620000","CLASSIFICATION_TYPE":"U","OBJECT_TYPE":"PAYLOAD","NORAD_CAT_ID":"52543","SEMIMAJOR_AXIS":"6917.882","MEAN_MOTION":"15.08839522","REF_FRAME":"TEME","BSTAR":"0.00001095500000","ARG_OF_PERICENTER":"87.2727","MEAN_MOTION_DOT":"-0.00000113","CENTER_NAME":"EARTH","FILE":"3947760","ECCENTRICITY":"0.00010510"},{"EPHEMERIS_TYPE":"0","MEAN_ELEMENT_THEORY":"SGP4","TLE_LINE2":"2 52544  53.2169 219.4718 0000784  84.5802 275.5280 15.08831754 63297","MEAN_ANOMALY":"275.5280","RCS_SIZE":"LARGE","REV_AT_EPOCH":"6329","MEAN_MOTION_DDOT":"0.0000000000000","LAUNCH_DATE":"2022-05-13","OBJECT_NAME":"STARLINK-3944","SITE":"AFWTR","OBJECT_ID":"2022-051M","RA_OF_ASC_NODE":"219.4718","ELEMENT_SET_NO":"999","GP_ID":"234673987","TIME_SYSTEM":"UTC","PERIAPSIS":"539.228","DECAY_DATE":null,"INCLINATION":"53.2169","TLE_LINE1":"1 52544U 22051M   23183.36480719 -.00001793  00000-0 -94636-4 0  9999","COUNTRY_CODE":"US","APOAPSIS":"540.313","BSTAR":"-0.00009463600000","MEAN_MOTION_DOT":"-0.00001793","ARG_OF_PERICENTER":"84.5802","CENTER_NAME":"EARTH","FILE":"3947760","ECCENTRICITY":"0.00007840","PERIOD":"95.438","CLASSIFICATION_TYPE":"U","EPOCH":"2023-07-02T08:45:19.341216","OBJECT_TYPE":"PAYLOAD","NORAD_CAT_ID":"52544","REF_FRAME":"TEME","SEMIMAJOR_AXIS":"6917.906","MEAN_MOTION":"15.08831754"},{"MEAN_MOTION_DDOT":"0.0000000000000","REV_AT_EPOCH":"6337","MEAN_ANOMALY":"276.6928","RCS_SIZE":"LARGE","TLE_LINE2":"2 52545  53.2157 214.2665 0000892  83.4166 276.6928 15.08842047 63377","MEAN_ELEMENT_THEORY":"SGP4","EPHEMERIS_TYPE":"0","RA_OF_ASC_NODE":"214.2665","OBJECT_ID":"2022-051N","SITE":"AFWTR","OBJECT_NAME":"STARLINK-3939","LAUNCH_DATE":"2022-05-13","TIME_SYSTEM":"UTC","GP_ID":"234674492","ELEMENT_SET_NO":"999","TLE_LINE1":"1 52545U 22051N   23183.40758461  .00000980  00000-0  79657-4 0  9998","APOAPSIS":"540.356","COUNTRY_CODE":"US","INCLINATION":"53.2157","PERIAPSIS":"539.122","DECAY_DATE":null,"ARG_OF_PERICENTER":"83.4166","MEAN_MOTION_DOT":"0.00000980","BSTAR":"0.00007965700000","FILE":"3947760","ECCENTRICITY":"0.00008920","CENTER_NAME":"EARTH","EPOCH":"2023-07-02T09:46:55.310304","CLASSIFICATION_TYPE":"U","PERIOD":"95.437","MEAN_MOTION":"15.08842047","SEMIMAJOR_AXIS":"6917.874","REF_FRAME":"TEME","NORAD_CAT_ID":"52545","OBJECT_TYPE":"PAYLOAD"},{"CENTER_NAME":"EARTH","ECCENTRICITY":"0.00009180","FILE":"3947760","BSTAR":"0.00004750500000","ARG_OF_PERICENTER":"85.8679","MEAN_MOTION_DOT":"0.00000468","OBJECT_TYPE":"PAYLOAD","NORAD_CAT_ID":"52546","SEMIMAJOR_AXIS":"6917.866","MEAN_MOTION":"15.08844824","REF_FRAME":"TEME","PERIOD":"95.437","CLASSIFICATION_TYPE":"U","EPOCH":"2023-07-02T08:32:39.595776","SITE":"AFWTR","OBJECT_NAME":"STARLINK-3948","LAUNCH_DATE":"2022-05-13","RA_OF_ASC_NODE":"214.1036","OBJECT_ID":"2022-051P","TLE_LINE2":"2 52546  53.2162 214.1036 0000918  85.8679 274.2418 15.08844824 63372","EPHEMERIS_TYPE":"0","MEAN_ELEMENT_THEORY":"SGP4","REV_AT_EPOCH":"6337","MEAN_MOTION_DDOT":"0.0000000000000","RCS_SIZE":"LARGE","MEAN_ANOMALY":"274.2418","COUNTRY_CODE":"US","TLE_LINE1":"1 52546U 22051P   23183.35601384  .00000468  00000-0  47505-4 0  9992","INCLINATION":"53.2162","APOAPSIS":"540.366","PERIAPSIS":"539.096","DECAY_DATE":null,"TIME_SYSTEM":"UTC","GP_ID":"234673986","ELEMENT_SET_NO":"999"},{"COUNTRY_CODE":"US","TLE_LINE1":"1 52547U 22051Q   23183.10352368  .00000642  00000-0  58414-4 0  9996","APOAPSIS":"540.483","INCLINATION":"53.2161","PERIAPSIS":"538.985","DECAY_DATE":null,"TIME_SYSTEM":"UTC","GP_ID":"234667458","ELEMENT_SET_NO":"999","RA_OF_ASC_NODE":"220.6315","OBJECT_ID":"2022-051Q","OBJECT_NAME":"STARLINK-3869","SITE":"AFWTR","LAUNCH_DATE":"2022-05-13","MEAN_MOTION_DDOT":"0.0000000000000","REV_AT_EPOCH":"6325","MEAN_ANOMALY":"280.6473","RCS_SIZE":"LARGE","TLE_LINE2":"2 52547  53.2161 220.6315 0001083  79.4641 280.6473 15.08843789 63254","EPHEMERIS_TYPE":"0","MEAN_ELEMENT_THEORY":"SGP4","MEAN_MOTION":"15.08843789","SEMIMAJOR_AXIS":"6917.869","REF_FRAME":"TEME","NORAD_CAT_ID":"52547","OBJECT_TYPE":"PAYLOAD","CLASSIFICATION_TYPE":"U","EPOCH":"2023-07-02T02:29:04.445952","PERIOD":"95.437","ECCENTRICITY":"0.00010830","FILE":"3947458","CENTER_NAME":"EARTH","ARG_OF_PERICENTER":"79.4641","MEAN_MOTION_DOT":"0.00000642","BSTAR":"0.00005841400000"},{"MEAN_ANOMALY":"284.6369","RCS_SIZE":"LARGE","REV_AT_EPOCH":"6337","MEAN_MOTION_DDOT":"0.0000000000000","MEAN_ELEMENT_THEORY":"SGP4","EPHEMERIS_TYPE":"0","TLE_LINE2":"2 52548  53.2153 214.3997 0000973  75.4731 284.6369 15.08839979 63372","RA_OF_ASC_NODE":"214.3997","OBJECT_ID":"2022-051R","LAUNCH_DATE":"2022-05-13","OBJECT_NAME":"STARLINK-3931","SITE":"AFWTR","ELEMENT_SET_NO":"999","GP_ID":"234674493","TIME_SYSTEM":"UTC","DECAY_DATE":null,"PERIAPSIS":"539.072","TLE_LINE1":"1 52548U 22051R   23183.37814422  .00000019  00000-0  19259-4 0  9992","INCLINATION":"53.2153","COUNTRY_CODE":"US","APOAPSIS":"540.419","MEAN_MOTION_DOT":"0.00000019","ARG_OF_PERICENTER":"75.4731","BSTAR":"0.00001925900000","ECCENTRICITY":"0.00009730","FILE":"3947760","CENTER_NAME":"EARTH","CLASSIFICATION_TYPE":"U","EPOCH":"2023-07-02T09:04:31.660608","PERIOD":"95.438","REF_FRAME":"TEME","SEMIMAJOR_AXIS":"6917.880","MEAN_MOTION":"15.08839979","OBJECT_TYPE":"PAYLOAD","NORAD_CAT_ID":"52548"},{"FILE":"3947760","ECCENTRICITY":"0.00010940","CENTER_NAME":"EARTH","MEAN_MOTION_DOT":"-0.00000339","ARG_OF_PERICENTER":"69.9865","BSTAR":"-0.00000322670000","REF_FRAME":"TEME","SEMIMAJOR_AXIS":"6917.885","MEAN_MOTION":"15.08838507","OBJECT_TYPE":"PAYLOAD","NORAD_CAT_ID":"52549","EPOCH":"2023-07-02T09:31:01.799040","CLASSIFICATION_TYPE":"U","PERIOD":"95.438","OBJECT_ID":"2022-051S","RA_OF_ASC_NODE":"214.3161","LAUNCH_DATE":"2022-05-13","SITE":"AFWTR","OBJECT_NAME":"STARLINK-3935","RCS_SIZE":"LARGE","MEAN_ANOMALY":"290.1244","REV_AT_EPOCH":"6337","MEAN_MOTION_DDOT":"0.0000000000000","MEAN_ELEMENT_THEORY":"SGP4","EPHEMERIS_TYPE":"0","TLE_LINE2":"2 52549  53.2161 214.3161 0001094  69.9865 290.1244 15.08838507 63376","PERIAPSIS":"538.993","DECAY_DATE":null,"TLE_LINE1":"1 52549U 22051S   23183.39654860 -.00000339  00000-0 -32267-5 0  9995","COUNTRY_CODE":"US","APOAPSIS":"540.507","INCLINATION":"53.2161","ELEMENT_SET_NO":"999","GP_ID":"234673988","TIME_SYSTEM":"UTC"},{"CENTER_NAME":"EARTH","ECCENTRICITY":"0.00009210","FILE":"3947760","BSTAR":"0.00003373800000","ARG_OF_PERICENTER":"76.5756","MEAN_MOTION_DOT":"0.00000249","NORAD_CAT_ID":"52550","OBJECT_TYPE":"PAYLOAD","MEAN_MOTION":"15.08838582","SEMIMAJOR_AXIS":"6917.885","REF_FRAME":"TEME","PERIOD":"95.438","EPOCH":"2023-07-02T10:50:30.734304","CLASSIFICATION_TYPE":"U","OBJECT_NAME":"STARLINK-3965","SITE":"AFWTR","LAUNCH_DATE":"2022-05-13","OBJECT_ID":"2022-051T","RA_OF_ASC_NODE":"214.0697","TLE_LINE2":"2 52550  53.2162 214.0697 0000921  76.5756 283.5339 15.08838582 63386","EPHEMERIS_TYPE":"0","MEAN_ELEMENT_THEORY":"SGP4","MEAN_MOTION_DDOT":"0.0000000000000","REV_AT_EPOCH":"6338","MEAN_ANOMALY":"283.5339","RCS_SIZE":"LARGE","TLE_LINE1":"1 52550U 22051T   23183.45174461  .00000249  00000-0  33738-4 0  9999","APOAPSIS":"540.387","COUNTRY_CODE":"US","INCLINATION":"53.2162","PERIAPSIS":"539.113","DECAY_DATE":null,"TIME_SYSTEM":"UTC","ELEMENT_SET_NO":"999","GP_ID":"234673993"}];
